{
  "norad_id": 66037,
  "name": "QIANFAN-95",
  "history": [
    {
      "epoch": "2026-03-28T22:27:01.850976Z",
      "apogee_km": 1070.3873236214085,
      "perigee_km": 1066.7531815480015,
      "latitude_deg": -4.067645843916828e-05,
      "longitude_deg": -112.34625890244097,
      "height_km": 1071.3466678396167,
      "semi_major_axis_km": 7446.707252584704,
      "eccentricity": 0.00024401,
      "inclination_deg": 88.9976,
      "raan_deg": 50.7602,
      "arg_perigee_deg": 84.5452,
      "mean_anomaly_deg": 275.5977,
      "mean_motion_rev_day": 13.51003084
    },
    {
      "epoch": "2026-03-29T03:46:59.004768Z",
      "apogee_km": 1070.3877953452093,
      "perigee_km": 1066.752312961372,
      "latitude_deg": 4.9726841566212454e-05,
      "longitude_deg": 167.42410217845077,
      "height_km": 1071.3463011053761,
      "semi_major_axis_km": 7446.70705415329,
      "eccentricity": 0.0002441,
      "inclination_deg": 88.9976,
      "raan_deg": 50.7377,
      "arg_perigee_deg": 84.5424,
      "mean_anomaly_deg": 275.6006,
      "mean_motion_rev_day": 13.51003138
    },
    {
      "epoch": "2026-03-30T04:40:05.721888Z",
      "apogee_km": 1070.3962682735182,
      "perigee_km": 1066.742914019902,
      "latitude_deg": 3.28096012350758e-05,
      "longitude_deg": 153.01921572068292,
      "height_km": 1071.3320354604093,
      "semi_major_axis_km": 7446.70659114671,
      "eccentricity": 0.0002453,
      "inclination_deg": 88.9978,
      "raan_deg": 50.6328,
      "arg_perigee_deg": 84.1347,
      "mean_anomaly_deg": 276.0084,
      "mean_motion_rev_day": 13.51003264
    },
    {
      "epoch": "2026-03-30T04:40:05.722752Z",
      "apogee_km": 1070.3952367612628,
      "perigee_km": 1066.7439675800879,
      "latitude_deg": 4.7307114378197986e-05,
      "longitude_deg": 153.01921236305097,
      "height_km": 1071.333114023311,
      "semi_major_axis_km": 7446.706602170675,
      "eccentricity": 0.00024516,
      "inclination_deg": 88.9979,
      "raan_deg": 50.6328,
      "arg_perigee_deg": 84.165,
      "mean_anomaly_deg": 275.9781,
      "mean_motion_rev_day": 13.51003261
    },
    {
      "epoch": "2026-03-30T11:46:41.924064Z",
      "apogee_km": 1070.3976970422073,
      "perigee_km": 1066.7410663405417,
      "latitude_deg": 1.6581652867775713e-05,
      "longitude_deg": 46.04637374987772,
      "height_km": 1071.3261703845124,
      "semi_major_axis_km": 7446.706381691374,
      "eccentricity": 0.00024552,
      "inclination_deg": 88.9979,
      "raan_deg": 50.6028,
      "arg_perigee_deg": 83.9618,
      "mean_anomaly_deg": 276.1813,
      "mean_motion_rev_day": 13.51003321
    },
    {
      "epoch": "2026-03-30T20:39:57.177216Z",
      "apogee_km": 1070.3987397291958,
      "perigee_km": 1066.7394283594958,
      "latitude_deg": 7.840654021547436e-06,
      "longitude_deg": -87.66968031761543,
      "height_km": 1071.318707730687,
      "semi_major_axis_km": 7446.7060840443455,
      "eccentricity": 0.0002457,
      "inclination_deg": 88.998,
      "raan_deg": 50.5653,
      "arg_perigee_deg": 83.7406,
      "mean_anomaly_deg": 276.4025,
      "mean_motion_rev_day": 13.51003402
    },
    {
      "epoch": "2026-03-31T19:46:24.826080Z",
      "apogee_km": 1070.4031805559698,
      "perigee_km": 1066.733444178035,
      "latitude_deg": 5.5109853258524387e-05,
      "longitude_deg": -75.33128048425795,
      "height_km": 1071.3023178174312,
      "semi_major_axis_km": 7446.705312367002,
      "eccentricity": 0.0002464,
      "inclination_deg": 88.9981,
      "raan_deg": 50.4679,
      "arg_perigee_deg": 83.2682,
      "mean_anomaly_deg": 276.875,
      "mean_motion_rev_day": 13.51003612
    },
    {
      "epoch": "2026-04-01T20:39:31.517280Z",
      "apogee_km": 1070.4109382154074,
      "perigee_km": 1066.7248193004234,
      "latitude_deg": 5.846765193692993e-05,
      "longitude_deg": -89.73615763787018,
      "height_km": 1071.285943470845,
      "semi_major_axis_km": 7446.704878757915,
      "eccentricity": 0.0002475,
      "inclination_deg": 88.9984,
      "raan_deg": 50.3629,
      "arg_perigee_deg": 82.7996,
      "mean_anomaly_deg": 277.3437,
      "mean_motion_rev_day": 13.5100373
    },
    {
      "epoch": "2026-04-02T19:45:59.149728Z",
      "apogee_km": 1070.4153716891324,
      "perigee_km": 1066.7188277740252,
      "latitude_deg": 9.967764463422621e-06,
      "longitude_deg": -77.39769145372773,
      "height_km": 1071.269119753482,
      "semi_major_axis_km": 7446.704099731579,
      "eccentricity": 0.0002482,
      "inclination_deg": 88.9985,
      "raan_deg": 50.2655,
      "arg_perigee_deg": 82.3185,
      "mean_anomaly_deg": 277.8248,
      "mean_motion_rev_day": 13.51003942
    },
    {
      "epoch": "2026-04-02T21:32:38.193792Z",
      "apogee_km": 1070.4158076121448,
      "perigee_km": 1066.7177745095041,
      "latitude_deg": -5.64860034768402e-07,
      "longitude_deg": -104.14087501895266,
      "height_km": 1071.2682865855081,
      "semi_major_axis_km": 7446.703791060824,
      "eccentricity": 0.0002483,
      "inclination_deg": 88.9986,
      "raan_deg": 50.258,
      "arg_perigee_deg": 82.3052,
      "mean_anomaly_deg": 277.8381,
      "mean_motion_rev_day": 13.51004026
    },
    {
      "epoch": "2026-04-03T20:39:05.806368Z",
      "apogee_km": 1070.4200903865794,
      "perigee_km": 1066.7116323616156,
      "latitude_deg": 4.659329061510732e-05,
      "longitude_deg": -91.80232488454679,
      "height_km": 1071.254414921212,
      "semi_major_axis_km": 7446.702861374098,
      "eccentricity": 0.000249,
      "inclination_deg": 88.9988,
      "raan_deg": 50.1606,
      "arg_perigee_deg": 81.9238,
      "mean_anomaly_deg": 278.2196,
      "mean_motion_rev_day": 13.51004279
    },
    {
      "epoch": "2026-04-04T19:45:33.413760Z",
      "apogee_km": 1070.4238968061845,
      "perigee_km": 1066.706503067975,
      "latitude_deg": -8.196217272817544e-05,
      "longitude_deg": -79.46365694563646,
      "height_km": 1071.2355117204029,
      "semi_major_axis_km": 7446.702199937079,
      "eccentricity": 0.0002496,
      "inclination_deg": 88.9989,
      "raan_deg": 50.0633,
      "arg_perigee_deg": 81.3746,
      "mean_anomaly_deg": 278.7687,
      "mean_motion_rev_day": 13.51004459
    },
    {
      "epoch": "2026-04-05T13:32:03.876864Z",
      "apogee_km": 1070.4277249845,
      "perigee_km": 1066.702586698062,
      "latitude_deg": 8.035286693941937e-05,
      "longitude_deg": 13.104516504116333,
      "height_km": 1071.2263965617444,
      "semi_major_axis_km": 7446.702155841281,
      "eccentricity": 0.00025012,
      "inclination_deg": 88.999,
      "raan_deg": 49.9884,
      "arg_perigee_deg": 81.1114,
      "mean_anomaly_deg": 279.0321,
      "mean_motion_rev_day": 13.51004471
    },
    {
      "epoch": "2026-04-05T20:38:40.072128Z",
      "apogee_km": 1070.4274378490763,
      "perigee_km": 1066.7040864679966,
      "latitude_deg": 2.5874957865795833e-05,
      "longitude_deg": -93.86819812540094,
      "height_km": 1071.21419271331,
      "semi_major_axis_km": 7446.702762158536,
      "eccentricity": 0.00025,
      "inclination_deg": 88.9991,
      "raan_deg": 49.9585,
      "arg_perigee_deg": 80.7074,
      "mean_anomaly_deg": 279.436,
      "mean_motion_rev_day": 13.51004306
    },
    {
      "epoch": "2026-04-06T03:45:16.282944Z",
      "apogee_km": 1070.4109699744386,
      "perigee_km": 1066.7227664825823,
      "latitude_deg": 4.508226356405547e-06,
      "longitude_deg": 159.15912273535437,
      "height_km": 1071.2551176681097,
      "semi_major_axis_km": 7446.70386822851,
      "eccentricity": 0.00024764,
      "inclination_deg": 88.9988,
      "raan_deg": 49.9287,
      "arg_perigee_deg": 81.8686,
      "mean_anomaly_deg": 278.2746,
      "mean_motion_rev_day": 13.51004005
    },
    {
      "epoch": "2026-04-07T20:38:14.571168Z",
      "apogee_km": 1070.3805184353341,
      "perigee_km": 1066.7643963228302,
      "latitude_deg": -8.72030813099421e-05,
      "longitude_deg": -95.9348503838274,
      "height_km": 1071.1681421806113,
      "semi_major_axis_km": 7446.709457379082,
      "eccentricity": 0.0002428,
      "inclination_deg": 88.9992,
      "raan_deg": 49.7566,
      "arg_perigee_deg": 78.7244,
      "mean_anomaly_deg": 281.4179,
      "mean_motion_rev_day": 13.51002484
    },
    {
      "epoch": "2026-04-08T14:24:45.117216Z",
      "apogee_km": 1070.3848384828552,
      "perigee_km": 1066.7599292889663,
      "latitude_deg": 7.355631217234297e-05,
      "longitude_deg": -3.367124595503035,
      "height_km": 1071.191940883006,
      "semi_major_axis_km": 7446.70938388591,
      "eccentricity": 0.00024339,
      "inclination_deg": 88.9994,
      "raan_deg": 49.6816,
      "arg_perigee_deg": 79.5219,
      "mean_anomaly_deg": 280.6207,
      "mean_motion_rev_day": 13.51002504
    },
    {
      "epoch": "2026-04-09T18:51:09.989856Z",
      "apogee_km": 1070.4507336207616,
      "perigee_km": 1066.690146363565,
      "latitude_deg": -4.882199956222925e-06,
      "longitude_deg": -71.25866472921427,
      "height_km": 1071.1611297007794,
      "semi_major_axis_km": 7446.707439992163,
      "eccentricity": 0.0002525,
      "inclination_deg": 88.9995,
      "raan_deg": 49.5617,
      "arg_perigee_deg": 79.0139,
      "mean_anomaly_deg": 281.1296,
      "mean_motion_rev_day": 13.51003033
    },
    {
      "epoch": "2026-04-10T10:51:01.452096Z",
      "apogee_km": 1070.4531756683045,
      "perigee_km": 1066.6866313165174,
      "latitude_deg": -2.3248047875716776e-05,
      "longitude_deg": 48.05250799647651,
      "height_km": 1071.1512553363527,
      "semi_major_axis_km": 7446.706903492411,
      "eccentricity": 0.0002529,
      "inclination_deg": 88.9997,
      "raan_deg": 49.4943,
      "arg_perigee_deg": 78.742,
      "mean_anomaly_deg": 281.4015,
      "mean_motion_rev_day": 13.51003179
    }
  ]
}